STARLINK-5946
1 55990U 23042E   26092.83335647  .00806448  00000+0  28781-1 0  9993
2 55990  42.9988 283.0259 0001573 276.9924 119.6199 15.25551075  5663
